{"fetched_at":"2026-07-15T17:47:41.547Z","source":"https://celestrak.org/NORAD/elements/gp.php?NAME=YAM&FORMAT=JSON","constellation":"earthdaily-constellation","records":[{"OBJECT_NAME":"YAM-10","OBJECT_ID":"2025-135BE","EPOCH":"2026-07-14T21:54:47.335968","CLASSIFICATION_TYPE":"U","MEAN_MOTION":14.91900371,"ECCENTRICITY":0.0001727,"INCLINATION":97.7753,"RA_OF_ASC_NODE":309.3842,"ARG_OF_PERICENTER":247.9397,"MEAN_ANOMALY":112.1638,"EPHEMERIS_TYPE":0,"NORAD_CAT_ID":64580,"ELEMENT_SET_NO":999,"REV_AT_EPOCH":5799,"BSTAR":0.00009145,"MEAN_MOTION_DOT":0.00000869,"MEAN_MOTION_DDOT":0},{"OBJECT_NAME":"YAM-11","OBJECT_ID":"2026-100M","EPOCH":"2026-07-15T02:44:56.344128","CLASSIFICATION_TYPE":"U","MEAN_MOTION":14.90569999,"ECCENTRICITY":0.0009656,"INCLINATION":97.7334,"RA_OF_ASC_NODE":92.8899,"ARG_OF_PERICENTER":1.6552,"MEAN_ANOMALY":358.4696,"EPHEMERIS_TYPE":0,"NORAD_CAT_ID":68991,"ELEMENT_SET_NO":999,"REV_AT_EPOCH":1085,"BSTAR":0.000083683,"MEAN_MOTION_DOT":0.00000764,"MEAN_MOTION_DDOT":0},{"OBJECT_NAME":"YAM-16","OBJECT_ID":"2026-100N","EPOCH":"2026-07-14T17:23:51.846432","CLASSIFICATION_TYPE":"U","MEAN_MOTION":14.91514277,"ECCENTRICITY":0.00047434,"INCLINATION":97.7338,"RA_OF_ASC_NODE":92.6354,"ARG_OF_PERICENTER":63.3745,"MEAN_ANOMALY":296.796,"EPHEMERIS_TYPE":0,"NORAD_CAT_ID":68992,"ELEMENT_SET_NO":999,"REV_AT_EPOCH":1080,"BSTAR":0.00009815026,"MEAN_MOTION_DOT":0.00000928,"MEAN_MOTION_DDOT":0},{"OBJECT_NAME":"YAM-13","OBJECT_ID":"2026-100P","EPOCH":"2026-07-15T03:17:21.172704","CLASSIFICATION_TYPE":"U","MEAN_MOTION":14.904104,"ECCENTRICITY":0.0009605,"INCLINATION":97.7336,"RA_OF_ASC_NODE":93.0169,"ARG_OF_PERICENTER":358.9052,"MEAN_ANOMALY":1.2143,"EPHEMERIS_TYPE":0,"NORAD_CAT_ID":68993,"ELEMENT_SET_NO":999,"REV_AT_EPOCH":1086,"BSTAR":0.0000863,"MEAN_MOTION_DOT":0.00000786,"MEAN_MOTION_DDOT":0},{"OBJECT_NAME":"YAM-15","OBJECT_ID":"2026-100T","EPOCH":"2026-07-15T04:34:35.933088","CLASSIFICATION_TYPE":"U","MEAN_MOTION":14.90653122,"ECCENTRICITY":0.0009414,"INCLINATION":97.7328,"RA_OF_ASC_NODE":93.0942,"ARG_OF_PERICENTER":12.1643,"MEAN_ANOMALY":347.98,"EPHEMERIS_TYPE":0,"NORAD_CAT_ID":68997,"ELEMENT_SET_NO":999,"REV_AT_EPOCH":1087,"BSTAR":0.000090303,"MEAN_MOTION_DOT":0.0000083,"MEAN_MOTION_DDOT":0},{"OBJECT_NAME":"YAM-12","OBJECT_ID":"2026-100Z","EPOCH":"2026-07-15T03:57:23.236128","CLASSIFICATION_TYPE":"U","MEAN_MOTION":14.90452161,"ECCENTRICITY":0.0009769,"INCLINATION":97.7312,"RA_OF_ASC_NODE":92.9576,"ARG_OF_PERICENTER":350.4405,"MEAN_ANOMALY":9.6626,"EPHEMERIS_TYPE":0,"NORAD_CAT_ID":69003,"ELEMENT_SET_NO":999,"REV_AT_EPOCH":1085,"BSTAR":0.00018792,"MEAN_MOTION_DOT":0.00001779,"MEAN_MOTION_DDOT":0},{"OBJECT_NAME":"YAM-14","OBJECT_ID":"2026-100AE","EPOCH":"2026-07-15T03:47:11.446368","CLASSIFICATION_TYPE":"U","MEAN_MOTION":14.90347539,"ECCENTRICITY":0.0006122,"INCLINATION":97.7317,"RA_OF_ASC_NODE":92.9726,"ARG_OF_PERICENTER":37.3565,"MEAN_ANOMALY":322.8078,"EPHEMERIS_TYPE":0,"NORAD_CAT_ID":69008,"ELEMENT_SET_NO":999,"REV_AT_EPOCH":1085,"BSTAR":0.000069623,"MEAN_MOTION_DOT":0.00000623,"MEAN_MOTION_DDOT":0}]}
