YAM-10                  
1 64580U 25135BE  26195.91304787  .00000869  00000+0  91450-4 0  9996
2 64580  97.7753 309.3842 0001727 247.9397 112.1638 14.91900371 57997
YAM-11                  
1 68991U 26100M   26196.11454102  .00000764  00000+0  83683-4 0  9992
2 68991  97.7334  92.8899 0009656   1.6552 358.4696 14.90569999 10854
YAM-16                  
1 68992U 26100N   26195.72490563  .00000928  00000+0  98150-4 0  9997
2 68992  97.7338  92.6354 0004743  63.3745 296.7960 14.91514277 10807
YAM-13                  
1 68993U 26100P   26196.13705061  .00000786  00000+0  86300-4 0  9992
2 68993  97.7336  93.0169 0009605 358.9052   1.2143 14.90410400 10861
YAM-15                  
1 68997U 26100T   26196.19069367  .00000830  00000+0  90303-4 0  9992
2 68997  97.7328  93.0942 0009414  12.1643 347.9800 14.90653122 10879
YAM-12                  
1 69003U 26100Z   26196.16485227  .00001779  00000+0  18792-3 0  9999
2 69003  97.7312  92.9576 0009769 350.4405   9.6626 14.90452161 10855
YAM-14                  
1 69008U 26100AE  26196.15777137  .00000623  00000+0  69623-4 0  9994
2 69008  97.7317  92.9726 0006122  37.3565 322.8078 14.90347539 10853
